NORAD_CAT_ID,OBJECT_NAME,OBJECT_TYPE,EPOCH,MEAN_MOTION,ECCENTRICITY,INCLINATION,RA_OF_ASC_NODE,ARG_OF_PERICENTER,MEAN_ANOMALY,BSTAR,MEAN_MOTION_DOT,MEAN_MOTION_DDOT,TLE_LINE0,TLE_LINE1,TLE_LINE2,SEMIMAJOR_AXIS,PERIOD,APOGEE,PERIGEE,DECAYED
52136.0,STARLINK-3720,PAYLOAD,2023-04-16 03:32:44,15.08841042,0.0001359,53.2156,141.1,95.677,264.4377,0.00010148,1.328e-05,0.0,0 STARLINK-3720,1 52136U 22029BA  23106.14773981  .00001328  00000-0  10148-3 0  9995,2 52136  53.2156 141.1000 0001359  95.6770 264.4377 15.08841042 61137,6917.877,95.437,540.682,538.802,0.0
52136.0,STARLINK-3720,PAYLOAD,2023-04-16 09:54:17,15.08844893,0.0001375,53.2155,139.9104,95.0868,265.0281,0.00014258,1.982e-05,0.0,0 STARLINK-3720,1 52136U 22029BA  23106.41269777  .00001982  00000-0  14258-3 0  9990,2 52136  53.2155 139.9104 0001375  95.0868 265.0281 15.08844893 61178,6917.865,95.437,540.682,538.779,0.0
52136.0,STARLINK-3720,PAYLOAD,2023-04-16 19:26:36,15.08840652,0.0001407,53.2157,138.1264,93.9014,266.2139,8.4782e-05,1.062e-05,0.0,0 STARLINK-3720,1 52136U 22029BA  23106.81014041  .00001062  00000-0  84782-4 0  9995,2 52136  53.2157 138.1264 0001407  93.9014 266.2139 15.08840652 61235,6917.878,95.438,540.717,538.77,0.0
52136.0,STARLINK-3720,PAYLOAD,2023-04-17 11:20:27,15.08838833,0.0001384,53.2151,135.1508,99.9195,260.1954,3.1073e-05,2.07e-06,0.0,0 STARLINK-3720,1 52136U 22029BA  23107.47254478  .00000207  00000-0  31073-4 0  9993,2 52136  53.2151 135.1508 0001384  99.9195 260.1954 15.08838833 61334,6917.884,95.438,540.706,538.792,0.0
52136.0,STARLINK-3720,PAYLOAD,2023-04-17 19:17:23,15.08836871,0.0001425,53.2145,133.664,101.7942,258.321,2.2245e-05,6.6e-07,0.0,0 STARLINK-3720,1 52136U 22029BA  23107.80374695  .00000066  00000-0  22245-4 0  9998,2 52136  53.2145 133.6640 0001425 101.7942 258.3210 15.08836871 61384,6917.89,95.438,540.741,538.769,0.0
52136.0,STARLINK-3720,PAYLOAD,2023-04-18 08:00:28,15.08843523,0.0001332,53.2141,131.284,105.1183,254.9957,5.8218e-05,6.39e-06,0.0,0 STARLINK-3720,1 52136U 22029BA  23108.33366242  .00000639  00000-0  58218-4 0  9991,2 52136  53.2141 131.2840 0001332 105.1183 254.9957 15.08843523 61469,6917.87,95.437,540.656,538.813,0.0
52136.0,STARLINK-3720,PAYLOAD,2023-04-19 01:29:43,15.08835415,0.0001495,53.2139,128.0131,104.2643,255.8515,0.00012601,1.718e-05,0.0,0 STARLINK-3720,1 52136U 22029BA  23109.06230769  .00001718  00000-0  12601-3 0  9990,2 52136  53.2139 128.0131 0001495 104.2643 255.8515 15.08835415 61577,6917.894,95.438,540.794,538.725,0.0
52136.0,STARLINK-3720,PAYLOAD,2023-04-19 11:02:02,15.08838271,0.0001437,53.2145,126.2296,98.6654,261.4501,0.00010885,1.445e-05,0.0,0 STARLINK-3720,1 52136U 22029BA  23109.45974825  .00001445  00000-0  10885-3 0  9990,2 52136  53.2145 126.2296 0001437  98.6654 261.4501 15.08838271 61638,6917.886,95.438,540.745,538.757,0.0
52136.0,STARLINK-3720,PAYLOAD,2023-04-20 06:06:39,15.0884075,0.0001439,53.2149,122.6606,105.0597,255.0555,7.9017e-05,9.7e-06,0.0,0 STARLINK-3720,1 52136U 22029BA  23110.25462742  .00000970  00000-0  79017-4 0  9995,2 52136  53.2149 122.6606 0001439 105.0597 255.0555 15.08840750 61754,6917.878,95.438,540.739,538.748,0.0
52136.0,STARLINK-3720,PAYLOAD,2023-04-20 17:14:21,15.0883799,0.0001413,53.215,120.5791,104.1821,255.9328,6.3667e-05,7.25e-06,0.0,0 STARLINK-3720,1 52136U 22029BA  23110.71830991  .00000725  00000-0  63667-4 0  9993,2 52136  53.2150 120.5791 0001413 104.1821 255.9328 15.08837990 61827,6917.887,95.438,540.729,538.774,0.0
52136.0,STARLINK-3720,PAYLOAD,2023-04-21 12:19:00,15.08834853,0.000139,53.2153,117.012,100.02,260.0949,2.8502e-05,1.66e-06,0.0,0 STARLINK-3720,1 52136U 22029BA  23111.51319509  .00000166  00000-0  28502-4 0  9997,2 52136  53.2153 117.0120 0001390 100.0200 260.0949 15.08834853 61941,6917.896,95.438,540.723,538.8,0.0
52136.0,STARLINK-3720,PAYLOAD,2023-04-21 17:05:09,15.08838011,0.0001364,53.2154,116.1204,100.5973,259.5173,1.3184e-06,-2.67e-06,0.0,0 STARLINK-3720,1 52136U 22029BA  23111.71191405 -.00000267  00000-0  13184-5 0  9996,2 52136  53.2154 116.1204 0001364 100.5973 259.5173 15.08838011 61973,6917.886,95.438,540.695,538.808,0.0
52136.0,STARLINK-3720,PAYLOAD,2023-04-22 10:34:23,15.08851028,0.000135,53.215,112.849,105.5541,254.56,1.8699e-05,1e-07,0.0,0 STARLINK-3720,1 52136U 22029BA  23112.44054523  .00000010  00000-0  18699-4 0  9996,2 52136  53.2150 112.8490 0001350 105.5541 254.5600 15.08851028 62086,6917.847,95.437,540.646,538.778,0.0
52136.0,STARLINK-3720,PAYLOAD,2023-04-22 16:55:56,15.08833794,0.0001382,53.2153,111.6588,115.0656,245.048,0.00016451,2.331e-05,0.0,0 STARLINK-3720,1 52136U 22029BA  23112.70551291  .00002331  00000-0  16451-3 0  9990,2 52136  53.2153 111.6588 0001382 115.0656 245.0480 15.08833794 62128,6917.899,95.438,540.72,538.808,0.0
52136.0,STARLINK-3720,PAYLOAD,2023-04-23 08:49:47,15.08835684,0.000124,53.2153,108.6847,99.5751,260.5381,0.00013827,1.913e-05,0.0,0 STARLINK-3720,1 52136U 22029BA  23113.36791344  .00001913  00000-0  13827-3 0  9997,2 52136  53.2153 108.6847 0001240  99.5751 260.5381 15.08835684 62220,6917.894,95.438,540.616,538.901,0.0
52136.0,STARLINK-3720,PAYLOAD,2023-04-24 05:29:48,15.08839395,0.0001189,53.2154,104.8188,99.6452,260.4675,0.00028536,4.256e-05,0.0,0 STARLINK-3720,1 52136U 22029BA  23114.22903065  .00004256  00000-0  28536-3 0  9994,2 52136  53.2154 104.8188 0001189  99.6452 260.4675 15.08839395 62350,6917.882,95.438,540.57,538.925,0.0
52136.0,STARLINK-3720,PAYLOAD,2023-04-24 16:37:29,15.08863865,0.0001254,53.2158,102.7365,84.9845,275.129,-7.1015e-05,-1.419e-05,0.0,0 STARLINK-3720,1 52136U 22029BA  23114.69269699 -.00001419  00000-0 -71015-4 0  9994,2 52136  53.2158 102.7365 0001254  84.9845 275.1290 15.08863865 62427,6917.807,95.436,540.54,538.805,0.0
52136.0,STARLINK-3720,PAYLOAD,2023-04-25 03:45:11,15.08847393,0.0001408,53.2163,100.6545,89.0735,271.0418,9.3025e-05,1.193e-05,0.0,0 STARLINK-3720,1 52136U 22029BA  23115.15638293  .00001193  00000-0  93025-4 0  9998,2 52136  53.2163 100.6545 0001408  89.0735 271.0418 15.08847393 62497,6917.858,95.437,540.697,538.749,0.0
52136.0,STARLINK-3720,PAYLOAD,2023-04-25 08:31:20,15.08849188,0.0001477,53.2159,99.7634,83.4789,276.6371,8.4186e-05,1.052e-05,0.0,0 STARLINK-3720,1 52136U 22029BA  23115.35510153  .00001052  00000-0  84186-4 0  9996,2 52136  53.2159  99.7634 0001477  83.4789 276.6371 15.08849188 62529,6917.852,95.437,540.739,538.696,0.0
52136.0,STARLINK-3720,PAYLOAD,2023-04-26 08:22:09,15.08831756,0.0001252,53.2158,95.304,80.5171,279.5963,-6.5765e-05,-1.334e-05,0.0,0 STARLINK-3720,1 52136U 22029BA  23116.34871854 -.00001334  00000-0 -65765-4 0  9991,2 52136  53.2158  95.3040 0001252  80.5171 279.5963 15.08831756 62672,6917.906,95.438,540.637,538.904,0.0
52136.0,STARLINK-3720,PAYLOAD,2023-04-27 08:12:55,15.08846111,0.0001212,53.2161,90.8426,114.7837,245.3281,6.4205e-06,-1.86e-06,0.0,0 STARLINK-3720,1 52136U 22029BA  23117.34230770 -.00000186  00000-0  64205-5 0  9990,2 52136  53.2161  90.8426 0001212 114.7837 245.3281 15.08846111 62821,6917.862,95.437,540.565,538.888,0.0
52136.0,STARLINK-3720,PAYLOAD,2023-04-27 20:56:00,15.08833674,0.0001061,53.2158,88.4638,89.5954,270.5159,0.00015337,2.154e-05,0.0,0 STARLINK-3720,1 52136U 22029BA  23117.87223369  .00002154  00000-0  15337-3 0  9990,2 52136  53.2158  88.4638 0001061  89.5954 270.5159 15.08833674 62909,6917.9,95.438,540.499,539.031,0.0
52136.0,STARLINK-3720,PAYLOAD,2023-04-28 08:03:42,15.08843213,0.000102,53.215,86.3817,86.3114,273.7995,0.00019701,2.849e-05,0.0,0 STARLINK-3720,1 52136U 22029BA  23118.33590775  .00002849  00000-0  19701-3 0  9990,2 52136  53.2150  86.3817 0001020  86.3114 273.7995 15.08843213 62975,6917.871,95.437,540.441,539.03,0.0
52136.0,STARLINK-3720,PAYLOAD,2023-04-28 20:46:48,15.08834563,0.0001532,53.2162,84.0036,96.6557,263.4609,4.8641e-05,4.86e-06,0.0,0 STARLINK-3720,1 52136U 22029BA  23118.86583907  .00000486  00000-0  48641-4 0  9998,2 52136  53.2162  84.0036 0001532  96.6557 263.4609 15.08834563 63055,6917.897,95.438,540.822,538.702,0.0
52136.0,STARLINK-3720,PAYLOAD,2023-04-29 07:54:30,15.08839824,0.0001276,53.2175,81.9237,96.9119,263.2018,-5.104e-05,-1.1e-05,0.0,0 STARLINK-3720,1 52136U 22029BA  23119.32951913 -.00001100  00000-0 -51040-4 0  9999,2 52136  53.2175  81.9237 0001276  96.9119 263.2018 15.08839824 63125,6917.881,95.438,540.629,538.863,0.0
52136.0,STARLINK-3720,PAYLOAD,2023-04-30 01:23:44,15.08840735,0.0001271,53.2179,78.6527,100.8979,259.2156,2.6373e-05,1.32e-06,0.0,0 STARLINK-3720,1 52136U 22029BA  23120.05815757  .00000132  00000-0  26373-4 0  9999,2 52136  53.2179  78.6527 0001271 100.8979 259.2156 15.08840735 63231,6917.878,95.438,540.622,538.864,0.0
52136.0,STARLINK-3720,PAYLOAD,2023-04-30 07:45:16,15.08849066,0.0001208,53.2166,77.4619,93.1595,266.9536,8.1001e-05,1.002e-05,0.0,0 STARLINK-3720,1 52136U 22029BA  23120.32311109  .00001002  00000-0  81001-4 0  9997,2 52136  53.2166  77.4619 0001208  93.1595 266.9536 15.08849066 63271,6917.853,95.437,540.553,538.882,0.0
52136.0,STARLINK-3720,PAYLOAD,2023-04-30 20:28:22,15.08836902,0.000212,53.2175,75.0837,77.6412,282.4817,0.00010855,1.44e-05,0.0,0 STARLINK-3720,1 52136U 22029BA  23120.85304229  .00001440  00000-0  10855-3 0  9994,2 52136  53.2175  75.0837 0002120  77.6412 282.4817 15.08836902 63355,6917.89,95.438,541.221,538.288,0.0
52136.0,STARLINK-3720,PAYLOAD,2023-05-01 06:00:41,15.08833542,0.0001221,53.2163,73.2981,87.0851,273.0281,9.8823e-05,1.285e-05,0.0,0 STARLINK-3720,1 52136U 22029BA  23121.25048594  .00001285  00000-0  98823-4 0  9998,2 52136  53.2163  73.2981 0001221  87.0851 273.0281 15.08833542 63410,6917.9,95.438,540.61,538.92,0.0
52136.0,STARLINK-3720,PAYLOAD,2023-05-02 04:16:05,15.08848525,0.0001253,53.2168,69.1335,88.3628,271.7508,9.0333e-05,1.15e-05,0.0,0 STARLINK-3720,1 52136U 22029BA  23122.17783940  .00001150  00000-0  90333-4 0  9990,2 52136  53.2168  69.1335 0001253  88.3628 271.7508 15.08848525 63552,6917.854,95.437,540.586,538.853,0.0
